[{"OBJECT_NAME":"AMOS-17","OBJECT_ID":"2019-050A","EPOCH":"2026-03-07T00:18:31.251744","MEAN_MOTION":1.0027253,"ECCENTRICITY":0.0001429,"INCLINATION":0.0421,"RA_OF_ASC_NODE":291.0202,"ARG_OF_PERICENTER":59.3039,"MEAN_ANOMALY":195.9977,"EPHEMERIS_TYPE":0,"CLASSIFICATION_TYPE":"U","NORAD_CAT_ID":44479,"ELEMENT_SET_NO":999,"REV_AT_EPOCH":2416,"BSTAR":0,"MEAN_MOTION_DOT":1.06e-6,"MEAN_MOTION_DDOT":0}]
