AMOS-17                 
1 44479U 19050A   26066.01286171  .00000106  00000+0  00000+0 0  9994
2 44479   0.0421 291.0202 0001429  59.3039 195.9977  1.00272530 24168
